112P/Urata-Niijima,e,24.1930,31.8395,21.4915,3.525928,0.1488655,0.58982587,54.6384,02/09.0/2021,2000,g 14.0,6.0
# From MPEC 2015-E14
113P/Spitaler,e,5.3015,306.7177,115.3078,3.703540,0.1382861,0.42216654,294.1319,02/09.0/2021,2000,g 13.5,4.0
# From MPEC 2021-BE3
114P/Wiseman-Skiff,e,18.2725,271.0547,172.7862,3.545914,0.1476086,0.55472079,57.8560,02/09.0/2021,2000,g 11.5,6.0
# From MPEC 2020-SI8
115P/Maury,e,11.6772,176.0095,120.9867,4.273511,0.1115647,0.51872526,21.6822,02/09.0/2021,2000,g 10.5,6.0
# From MPC106348
116P/Wild,e,3.6035,20.9888,173.3580,3.489360,0.1512117,0.37069131,280.9090,02/09.0/2021,2000,g  2.5,10.0
# From MPEC 2015-S97
117P/Helin-Roman-Alu,e,8.7021,58.8463,222.8116,4.085443,0.1193563,0.25575278,298.7594,02/09.0/2021,2000,g  9.0,4.0
# From MPC 95735
118P/Shoemaker-Levy,e,10.0414,142.1463,313.9911,3.371756,0.1591915,0.45658034,256.6312,02/09.0/2021,2000,g 12.0,4.0
# From MPC 84628
119P/Parker-Hartley,e,7.4239,104.7787,321.4853,3.824050,0.1318010,0.39169255,287.9434,02/09.0/2021,2000,g  3.5,8.0
# From MPEC 2020-SI8
120P/Mueller,e,8.4899,358.6741,36.5471,3.961629,0.1249952,0.37452642,349.1123,02/09.0/2021,2000,g 12.0,4.0
# From MPEC 2020-SI8
121P/Shoemaker-Holt,e,20.1630,94.1324,11.3222,4.585393,0.1003782,0.18542430,272.8545,02/09.0/2021,2000,g  6.5,8.0
# From MPC 75718
122P/de Vico,e,84.8184,79.5396,13.0118,17.62866,0.0133160,0.96225974,123.5856,02/09.0/2021,2000,g  7.5,5.2
# From MPC114608
123P/West-Hartley,e,15.3055,46.2820,103.6620,3.871394,0.1293907,0.44783998,95.0421,02/09.0/2021,2000,g  4.0,10.0
# From MPEC 2020-SI8
124P/Mrkos,e,31.5138,0.3562,183.9065,3.319079,0.1629963,0.50348864,46.9513,02/09.0/2021,2000,g 13.5,2.8
# From MPEC 2015-M77
125P/Spacewatch,e,9.9867,153.1533,87.2360,3.125588,0.1783637,0.51283653,159.8835,02/09.0/2021,2000,g  9.0,4.0
# From MPC 66205
126P/IRAS,e,45.8644,357.8580,356.5138,5.640873,0.0735673,0.69619936,295.5267,02/09.0/2021,2000,g  9.0,4.0
# From MPC 84321
127P/Holt-Olmstead,e,14.2971,13.6411,6.4977,3.450543,0.1537705,0.35986056,275.7086,02/09.0/2021,2000,g 11.0,6.0
# From MPC 89014
128P/Shoemaker-Holt,e,4.3669,214.2950,210.3286,4.492834,0.1034960,0.32058698,154.3899,02/09.0/2021,2000,g  8.5,4.0
# From MPEC 2019-TG9
129P/Shoemaker-Levy,e,3.4425,184.8860,307.9388,4.282605,0.1112095,0.08396250,286.2632,02/09.0/2021,2000,g 11.0,4.0
# From MPC 78188
130P/McNaught-Hughes,e,6.0631,70.2338,245.9910,3.383850,0.1583388,0.46135763,176.3112,02/09.0/2021,2000,g 10.0,6.0
# From MPC102101
131P/Mueller,e,7.3545,214.1635,179.0301,3.680991,0.1395587,0.34379680,104.2179,02/09.0/2021,2000,g 11.0,4.0
# From MPEC 2020-HN5
132P/Helin-Roman-Alu,e,5.3798,174.0276,216.3540,3.888152,0.1285551,0.56511538,324.3723,02/09.0/2021,2000,g 11.0,6.0
# From MPC 94676
133P/Elst-Pizarro,e,1.3891,160.1148,131.7933,3.164385,0.1750935,0.15703780,152.5521,02/09.0/2021,2000,g 15.4,2.0
# From MPC 89012
134P/Kowal-Vavrova,e,4.3413,202.0769,18.8843,6.259383,0.0629371,0.58631178,154.6561,02/09.0/2021,2000,g 11.5,4.0
# From MPEC 2015-E14
135P/Shoemaker-Levy,e,6.0615,213.0345,22.2796,3.803625,0.1328641,0.29538193,303.9091,02/09.0/2021,2000,g  9.0,4.0
# From MPEC 2020-W26
136P/Mueller,e,9.4243,137.4474,224.8885,4.194123,0.1147472,0.29256900,196.6584,02/09.0/2021,2000,g 11.0,4.0
# From MPEC 2020-HN5
137P/Shoemaker-Levy,e,4.8535,233.0452,141.0211,4.520535,0.1025461,0.57340285,80.8460,02/09.0/2021,2000,g 11.0,4.0
# From MPEC 2016-U66
138P/Shoemaker-Levy,e,10.0911,309.3320,95.5539,3.622558,0.1429490,0.53039502,92.6589,02/09.0/2021,2000,g 15.0,6.0
# From MPEC 2020-HN5
139P/Vaisala-Oterma,e,2.3337,242.1824,165.7413,4.523373,0.1024496,0.24660186,118.5881,02/09.0/2021,2000,g  9.5,4.0
# From MPEC 2015-E14
140P/Bowell-Skiff,e,3.8314,343.2918,172.8921,6.431939,0.0604215,0.69135529,121.6950,02/09.0/2021,2000,g 11.5,6.0
# From MPEC 2021-AJ0
141P/Machholz,e,13.9450,241.8487,153.5456,3.056926,0.1844067,0.73570449,10.0922,02/09.0/2021,2000,g 12.0,12.0
# From MPC 95735
141P-H/Machholz,e,12.8431,246.0900,149.4500,3.008012,0.1889230,0.74682218,359.9270,08/24.0/2015,2000,g 18.5,4.0
# From MPC 71683
142P/Ge-Wang,e,12.2474,175.9380,173.9588,5.006960,0.0879717,0.49809840,351.8501,02/09.0/2021,2000,g  9.0,4.0
# From MPEC 2021-BE3
143P/Kowal-Mrkos,e,4.6974,245.2446,320.4323,4.283791,0.1111634,0.41065821,112.3195,02/09.0/2021,2000,g 13.5,2.0
# From MPC104795
144P/Kushida,e,3.9499,243.4474,216.1744,3.816351,0.1322000,0.63692958,217.1514,02/09.0/2021,2000,g  8.5,8.0
# From MPC108598
145P/Shoemaker-Levy,e,11.2702,26.7878,10.2482,4.139146,0.1170410,0.54123079,147.1097,02/09.0/2021,2000,g 13.5,4.0
# From MPC100284
146P/Shoemaker-LINEAR,e,23.0906,53.4073,316.9296,4.032716,0.1217048,0.64684620,204.9804,02/09.0/2021,2000,g 15.0,4.0
# From MPC 75720
147P/Kushida-Muramatsu,e,2.3470,93.1917,350.5021,3.976415,0.1242987,0.23431855,231.7863,02/09.0/2021,2000,g 14.0,4.0
# From MPEC 2014-R70
148P/Anderson-LINEAR,e,3.6618,89.3543,7.5750,3.631234,0.1424370,0.55001260,290.3143,02/09.0/2021,2000,g  9.0,4.0
# From MPC 75720
149P/Mueller,e,30.0644,144.9463,44.5211,4.338883,0.1090529,0.39279753,78.5049,02/09.0/2021,2000,g  8.0,8.0
# From MPC 75720
150P/LONEOS,e,18.5067,272.3950,245.5564,3.879821,0.1289693,0.54680044,214.3419,02/09.0/2021,2000,g 13.5,4.0
# From MPEC 2015-Q71
151P/Helin,e,4.7280,143.1541,216.0464,5.763975,0.0712231,0.57330840,138.8098,02/09.0/2021,2000,g 10.0,6.0
# From MPC 79346
152P/Helin-Lawrence,e,9.8797,91.8637,163.8778,4.479188,0.1039693,0.30896654,324.8184,02/09.0/2021,2000,g 11.5,4.0
# From MPC 46101
153P/Ikeya-Zhang,e,27.7715,93.1081,35.1480,50.73488,0.0027274,0.98962705,0.0000,03/07.6631/2002,2000,g  9.0,4.0
# From MPC 87068
154P/Brewington,e,17.6320,343.0302,47.8376,4.803246,0.0936272,0.67545387,245.6515,02/09.0/2021,2000,g  2.5,12.0
# From MPEC 2020-SI8
155P/Shoemaker,e,6.3961,97.1953,14.6373,6.581078,0.0583793,0.72626560,26.3910,02/09.0/2021,2000,g 10.0,4.8
# From MPEC 2021-BE3
156P/Russell-LINEAR,e,17.2624,35.3684,0.4310,3.460372,0.1531157,0.61477443,12.7275,02/09.0/2021,2000,g 15.5,2.0
# From MPC104795
157P/Tritton,e,12.5465,287.8357,154.8972,3.548480,0.1474486,0.56020598,275.0546,02/09.0/2021,2000,g 10.0,4.0
# From MPEC 2016-K18
158P/Kowal-LINEAR,e,7.9997,135.5519,174.5241,4.933801,0.0899356,0.02737657,349.5483,02/09.0/2021,2000,g  9.0,4.0
# From MPEC 2020-L06
159P/LONEOS,e,23.4634,54.9907,4.5903,5.855075,0.0695673,0.38161192,69.1551,02/09.0/2021,2000,g 10.0,4.0
# From MPEC 2019-TG9
160P/LINEAR,e,15.6164,333.3610,12.6896,3.773656,0.1344500,0.52627299,58.4364,02/09.0/2021,2000,g 15.5,2.0
# From MPC 75721
161P/Hartley-IRAS,e,95.7704,1.5176,46.9365,7.725884,0.0458967,0.83466798,262.7457,02/09.0/2021,2000,g  8.5,6.0
# From MPEC 2021-BE3
162P/Siding Spring,e,27.5547,30.9108,357.1360,3.090628,0.1813986,0.58288737,11.4604,02/09.0/2021,2000,g 12.0,4.0
# From MPEC 2020-HN5
163P/NEAT,e,12.7081,102.0888,349.6315,3.768364,0.1347333,0.45182759,74.6332,02/09.0/2021,2000,g 14.5,4.0
# From MPC106349
164P/Christensen,e,16.2549,88.2971,325.8380,3.657242,0.1409203,0.53988939,138.7624,02/09.0/2021,2000,g 11.0,4.0
# From MPC 75721
165P/LINEAR,e,15.8971,0.8107,126.0958,17.88865,0.0130268,0.61480111,98.6700,02/09.0/2021,2000,g 11.5,2.0
# From MPC 75722
166P/NEAT,e,15.3662,64.4663,321.4436,13.82355,0.0191767,0.38296701,131.3274,02/09.0/2021,2000,g  5.5,4.0
# From MPC 75722
167P/CINEOS,e,19.1209,295.6557,344.3945,16.20478,0.0151091,0.27249480,109.0071,02/09.0/2021,2000,g  9.5,2.0
# From MPC102101
168P/Hergenrother,e,21.6176,355.4552,14.9957,3.582202,0.1453714,0.62082778,80.4994,02/09.0/2021,2000,g 15.5,4.0
# From MPEC 2020-L06
169P/NEAT,e,11.2978,176.0991,218.0542,2.601320,0.2349164,0.76810949,238.8349,02/09.0/2021,2000,g 16.0,2.0
# From MPC 89012
170P/Christensen,e,10.1250,142.9219,225.6215,4.198390,0.1145724,0.30366217,268.1888,02/09.0/2021,2000,g 12.0,4.0
# From MPC102102
171P/Spahr,e,21.9340,101.6960,347.0961,3.555785,0.1469944,0.50158239,111.3601,02/09.0/2021,2000,g 13.5,4.0
# From MPEC 2021-BE3
172P/Yeung,e,11.2299,30.8948,209.4117,4.212137,0.1140119,0.20570746,162.8897,02/09.0/2021,2000,g 13.0,4.0
# From MPEC 2021-BE3
173P/Mueller,e,16.4959,100.4027,29.2604,5.703463,0.0723596,0.26068313,337.4695,02/09.0/2021,2000,g  7.5,4.0
# From MPC 92985
174P/Echeclus,e,4.3432,173.2346,163.0268,10.71344,0.0281068,0.45733513,59.5173,02/09.0/2021,2000,g  9.4,2.0
# From MPC114608
175P/Hergenrother,e,6.0804,123.5201,56.5212,3.439093,0.1545390,0.43339397,76.6696,02/09.0/2021,2000,g 14.0,4.0
# From MPC 89015
176P/LINEAR,e,0.2348,345.8910,35.0695,3.193466,0.1727073,0.19304324,247.2847,02/09.0/2021,2000,g 15.1,2.0
# From MPEC 2020-L06
177P/Barnard,e,31.3023,272.2915,60.2053,24.40673,0.0081741,0.95525835,43.1143,02/09.0/2021,2000,g 15.0,4.0
# From MPEC 2020-SI8
178P/Hug-Bell,e,11.0893,102.8748,297.7907,3.631569,0.1424173,0.48196902,29.5329,02/09.0/2021,2000,g 13.5,4.0
# From MPC 75723
179P/Jedicke,e,19.8987,115.5246,296.7023,5.937719,0.0681200,0.30618178,327.7236,02/09.0/2021,2000,g  2.5,8.0
# From MPC100284
180P/NEAT,e,16.8670,84.5642,94.8367,3.862384,0.1298437,0.35310950,245.2483,02/09.0/2021,2000,g 11.0,4.0
# From MPC 89012
181P/Shoemaker-Levy,e,17.4867,35.4121,336.2461,3.871970,0.1293618,0.70049870,316.8206,02/09.0/2021,2000,g 11.5,4.0
# From MPEC 2014-J10
182P/LONEOS,e,16.2241,72.5789,54.0206,2.954023,0.1941258,0.66274874,271.2172,02/09.0/2021,2000,g 18.0,4.0
# From MPC110085
183P/Korlevic-Juric,e,18.7238,4.8504,165.3879,4.531382,0.1021782,0.13814305,119.0254,02/09.0/2021,2000,g 12.5,2.0
# From MPEC 2020-W26
184P/Lovas,e,4.5732,173.2549,186.4401,3.792855,0.1334304,0.55092171,14.1178,02/09.0/2021,2000,g 13.5,4.0
# From MPC109593
185P/Petriew,e,14.0033,214.0964,181.8761,3.099113,0.1806542,0.69912135,200.2530,02/09.0/2021,2000,g 15.0,4.0
# From MPEC 2020-W26
186P/Garradd,e,28.7563,326.6417,281.6541,4.984725,0.0885609,0.12280539,59.1434,02/09.0/2021,2000,g  7.5,4.0
# From MPEC 2020-SI8
187P/LINEAR,e,13.6345,109.9220,131.9691,4.570755,0.1008607,0.15216392,100.8300,02/09.0/2021,2000,g  9.0,4.0
# From MPC106349
